[{"OBJECT_NAME":"DONGPO 10","OBJECT_ID":"2022-167H","EPOCH":"2026-03-09T22:44:56.137344","MEAN_MOTION":15.322785,"ECCENTRICITY":0.00061655,"INCLINATION":97.685,"RA_OF_ASC_NODE":235.0962,"ARG_OF_PERICENTER":106.9526,"MEAN_ANOMALY":253.2392,"EPHEMERIS_TYPE":0,"CLASSIFICATION_TYPE":"U","NORAD_CAT_ID":54689,"ELEMENT_SET_NO":999,"REV_AT_EPOCH":18015,"BSTAR":0.00049390523,"MEAN_MOTION_DOT":0.00015333,"MEAN_MOTION_DDOT":0},{"OBJECT_NAME":"STARLINK-31786","OBJECT_ID":"2024-091U","EPOCH":"2026-03-09T07:26:11.818464","MEAN_MOTION":15.30193136,"ECCENTRICITY":0.00012428,"INCLINATION":53.1616,"RA_OF_ASC_NODE":28.8329,"ARG_OF_PERICENTER":65.6033,"MEAN_ANOMALY":294.5097,"EPHEMERIS_TYPE":0,"CLASSIFICATION_TYPE":"U","NORAD_CAT_ID":59771,"ELEMENT_SET_NO":999,"REV_AT_EPOCH":10294,"BSTAR":-6.725755e-6,"MEAN_MOTION_DOT":-5.58e-6,"MEAN_MOTION_DDOT":0}]
